{"type":"FeatureCollection","features":[{"type":"Feature","id":"lm17_line_road_centre_line.104258","geometry":{"type":"MultiLineString","coordinates":[[[28.84360874,47.01995553,75.37478005],[28.84471433,47.02076065,72.8801582]]]},"geometry_name":"geom","properties":{"gid":null,"shape_leng":null,"layer":7001,"medium":"T","z":74.13,"layer_name":"road_centre_line"}},{"type":"Feature","id":"lm17_line_road_centre_line.104270","geometry":{"type":"MultiLineString","coordinates":[[[28.8455741,47.0186189,72.50849324],[28.84656012,47.01928414,69.88619141],[28.84671528,47.0194061,69.27556967]]]},"geometry_name":"geom","properties":{"gid":null,"shape_leng":null,"layer":7001,"medium":"T","z":70.89,"layer_name":"road_centre_line"}},{"type":"Feature","id":"lm17_line_road_centre_line.104271","geometry":{"type":"MultiLineString","coordinates":[[[28.84350662,47.01718775,77.86274671],[28.84469688,47.0180059,74.65235572],[28.8455741,47.0186189,72.50849324]]]},"geometry_name":"geom","properties":{"gid":null,"shape_leng":null,"layer":7001,"medium":"T","z":75.19,"layer_name":"road_centre_line"}},{"type":"Feature","id":"lm17_line_road_centre_line.104508","geometry":{"type":"MultiLineString","coordinates":[[[28.83858242,47.0164761,86.32012344],[28.839641,47.01721957,85.34892127],[28.84027903,47.01766269,84.08898332],[28.84094386,47.01811776,82.52580626],[28.84151392,47.01851952,80.83963094]]]},"geometry_name":"geom","properties":{"gid":null,"shape_leng":null,"layer":7001,"medium":"T","z":83.58,"layer_name":"road_centre_line"}},{"type":"Feature","id":"lm17_line_road_centre_line.104713","geometry":{"type":"MultiLineString","coordinates":[[[28.8455741,47.0186189,72.50849324],[28.84564249,47.01857356,72.37523855],[28.84623875,47.0181718,70.70253638],[28.84691134,47.01773,68.82074644],[28.84733514,47.01741282,67.55521969],[28.84765303,47.01721022,67.50421966]]]},"geometry_name":"geom","properties":{"gid":null,"shape_leng":null,"layer":7001,"medium":"T","z":70.01,"layer_name":"road_centre_line"}},{"type":"Feature","id":"lm17_line_road_centre_line.104851","geometry":{"type":"MultiLineString","coordinates":[[[28.84360874,47.01995553,75.37478005],[28.84391986,47.01974478,74.9888357],[28.84460297,47.01926273,74.40077634],[28.8455741,47.0186189,72.50849324]]]},"geometry_name":"geom","properties":{"gid":null,"shape_leng":null,"layer":7001,"medium":"T","z":73.94,"layer_name":"road_centre_line"}},{"type":"Feature","id":"lm17_line_road_centre_line.104985","geometry":{"type":"MultiLineString","coordinates":[[[28.84156497,47.02132217,76.94903355],[28.84221065,47.02090294,77.11891737],[28.8432035,47.02023001,75.87745872],[28.84360874,47.01995553,75.37478005]]]},"geometry_name":"geom","properties":{"gid":null,"shape_leng":null,"layer":7001,"medium":"T","z":76.25,"layer_name":"road_centre_line"}},{"type":"Feature","id":"lm17_line_road_centre_line.105091","geometry":{"type":"MultiLineString","coordinates":[[[28.84012965,47.02225914,77.38793754],[28.84019718,47.02222954,77.33226857],[28.84027421,47.02218493,77.28712791],[28.84083946,47.02180392,76.84249888],[28.84156497,47.02132217,76.94903355]]]},"geometry_name":"geom","properties":{"gid":null,"shape_leng":null,"layer":7001,"medium":"T","z":77.12,"layer_name":"road_centre_line"}},{"type":"Feature","id":"lm17_line_road_centre_line.105116","geometry":{"type":"MultiLineString","coordinates":[[[28.84012965,47.02225914,77.38793754],[28.8401489,47.0222732,77.61443412],[28.84042525,47.02247503,76.46728072],[28.84130575,47.02307936,73.59715108]]]},"geometry_name":"geom","properties":{"gid":null,"shape_leng":null,"layer":7001,"medium":"T","z":75.61,"layer_name":"road_centre_line"}},{"type":"Feature","id":"lm17_line_road_centre_line.105140","geometry":{"type":"MultiLineString","coordinates":[[[28.83807197,47.02081994,83.05248116],[28.83859695,47.02119323,81.87621408],[28.83970181,47.02194667,78.72046185],[28.84012965,47.02225914,77.38793754]]]},"geometry_name":"geom","properties":{"gid":null,"shape_leng":null,"layer":7001,"medium":"T","z":80.22,"layer_name":"road_centre_line"}},{"type":"Feature","id":"lm17_line_road_centre_line.105444","geometry":{"type":"MultiLineString","coordinates":[[[28.8427184,47.0221112,73.89186563],[28.84324376,47.02176587,73.83533336],[28.84394023,47.02128336,73.35168563],[28.84471433,47.02076065,72.8801582]]]},"geometry_name":"geom","properties":{"gid":null,"shape_leng":null,"layer":7001,"medium":"T","z":73.39,"layer_name":"road_centre_line"}},{"type":"Feature","id":"lm17_line_road_centre_line.105499","geometry":{"type":"MultiLineString","coordinates":[[[28.84130575,47.02307936,73.59715108],[28.8416632,47.02284292,73.46279389],[28.84251491,47.02224496,73.91376272],[28.8427184,47.0221112,73.89186563]]]},"geometry_name":"geom","properties":{"gid":null,"shape_leng":null,"layer":7001,"medium":"T","z":73.69,"layer_name":"road_centre_line"}},{"type":"Feature","id":"lm17_line_road_centre_line.105577","geometry":{"type":"MultiLineString","coordinates":[[[28.84156497,47.02132217,76.94903355],[28.84249931,47.02195891,74.86831781],[28.8427184,47.0221112,73.89186563]]]},"geometry_name":"geom","properties":{"gid":null,"shape_leng":null,"layer":7001,"medium":"T","z":75.42,"layer_name":"road_centre_line"}},{"type":"Feature","id":"lm17_line_road_centre_line.105721","geometry":{"type":"MultiLineString","coordinates":[[[28.83950442,47.01986205,82.29382833],[28.84120423,47.02107633,77.75239131],[28.84156497,47.02132217,76.94903355]]]},"geometry_name":"geom","properties":{"gid":null,"shape_leng":null,"layer":7001,"medium":"T","z":79.62,"layer_name":"road_centre_line"}},{"type":"Feature","id":"lm17_line_road_centre_line.109950","geometry":{"type":"MultiLineString","coordinates":[[[28.84151392,47.01851952,80.83963094],[28.84202879,47.01817527,80.43253151],[28.84279764,47.01766065,79.26980492],[28.84349293,47.01719688,77.89151666],[28.84350662,47.01718775,77.86274671]]]},"geometry_name":"geom","properties":{"gid":null,"shape_leng":null,"layer":7001,"medium":"T","z":79.35,"layer_name":"road_centre_line"}},{"type":"Feature","id":"lm17_line_road_centre_line.110026","geometry":{"type":"MultiLineString","coordinates":[[[28.83950442,47.01986205,82.29382833],[28.83963512,47.01977491,82.21581443],[28.84050538,47.01919632,81.81735194],[28.84126873,47.01868345,81.03349132],[28.84151392,47.01851952,80.83963094]]]},"geometry_name":"geom","properties":{"gid":null,"shape_leng":null,"layer":7001,"medium":"T","z":81.57,"layer_name":"road_centre_line"}},{"type":"Feature","id":"lm17_line_road_centre_line.113664","geometry":{"type":"MultiLineString","coordinates":[[[28.84130575,47.02307936,73.59715108],[28.84121574,47.02314913,73.51186947],[28.84102102,47.02327017,73.76853004],[28.84075984,47.02344983,73.89277337],[28.84052599,47.02360323,74.0333645],[28.84026175,47.02378946,74.22463384],[28.8399968,47.02396995,74.10529485]]]},"geometry_name":"geom","properties":{"gid":null,"shape_leng":null,"layer":7001,"medium":"T","z":73.87,"layer_name":"road_centre_line"}},{"type":"Feature","id":"lm17_line_road_centre_line.113808","geometry":{"type":"MultiLineString","coordinates":[[[28.83882859,47.02327768,77.89144688],[28.8390005,47.02340199,77.13617821],[28.83918884,47.02353382,76.91057848],[28.83980868,47.02397367,74.19030345],[28.83989318,47.02403343,74.04608871],[28.8399968,47.02396995,74.10529485]]]},"geometry_name":"geom","properties":{"gid":null,"shape_leng":null,"layer":7001,"medium":"T","z":75.97,"layer_name":"road_centre_line"}},{"type":"Feature","id":"lm17_line_road_centre_line.142214","geometry":{"type":"MultiLineString","coordinates":[[[28.84452525,47.02380805,69.28533521],[28.84454651,47.02379334,69.29658607]]]},"geometry_name":"geom","properties":{"gid":null,"shape_leng":null,"layer":7001,"medium":"T","z":69.29,"layer_name":"road_centre_line"}},{"type":"Feature","id":"lm17_line_road_centre_line.142297","geometry":{"type":"MultiLineString","coordinates":[[[28.84454651,47.02379334,69.29658607],[28.84457285,47.02378388,69.29120432]]]},"geometry_name":"geom","properties":{"gid":null,"shape_leng":null,"layer":7001,"medium":"T","z":69.29,"layer_name":"road_centre_line"}},{"type":"Feature","id":"lm17_line_road_centre_line.160392","geometry":{"type":"MultiLineString","coordinates":[[[28.84391985,47.02309774,70.88150904],[28.84394403,47.02312459,70.88150904]]]},"geometry_name":"geom","properties":{"gid":null,"shape_leng":null,"layer":7001,"medium":"T","z":70.88,"layer_name":"road_centre_line"}},{"type":"Feature","id":"lm17_line_road_centre_line.160442","geometry":{"type":"MultiLineString","coordinates":[[[28.84345892,47.02462738,69.915805],[28.84344977,47.0246213,69.92256689]]]},"geometry_name":"geom","properties":{"gid":null,"shape_leng":null,"layer":7001,"medium":"T","z":69.92,"layer_name":"road_centre_line"}},{"type":"Feature","id":"lm17_line_road_centre_line.160536","geometry":{"type":"MultiLineString","coordinates":[[[28.84344977,47.0246213,69.92256689],[28.84337469,47.0245714,70.13296517],[28.84258283,47.02402015,71.70980839],[28.84249879,47.02395681,72.05841168]]]},"geometry_name":"geom","properties":{"gid":null,"shape_leng":null,"layer":7001,"medium":"T","z":70.99,"layer_name":"road_centre_line"}},{"type":"Feature","id":"lm17_line_road_centre_line.160589","geometry":{"type":"MultiLineString","coordinates":[[[28.85018728,47.02449936,57.8197569],[28.84994546,47.02471288,58.17815256],[28.84928278,47.02532607,59.37155639],[28.84901956,47.02558442,58.9734917]]]},"geometry_name":"geom","properties":{"gid":null,"shape_leng":null,"layer":7001,"medium":"T","z":58.6,"layer_name":"road_centre_line"}},{"type":"Feature","id":"lm17_line_road_centre_line.160601","geometry":{"type":"MultiLineString","coordinates":[[[28.84249879,47.02395681,72.05841168],[28.84246786,47.02393349,72.05861244]]]},"geometry_name":"geom","properties":{"gid":null,"shape_leng":null,"layer":7001,"medium":"T","z":72.06,"layer_name":"road_centre_line"}},{"type":"Feature","id":"lm17_line_road_centre_line.160629","geometry":{"type":"MultiLineString","coordinates":[[[28.84596632,47.0263524,59.93384288],[28.84586528,47.02628391,60.25992531],[28.84517875,47.02581887,63.41929807],[28.84465014,47.02545317,66.57867082],[28.84357217,47.02470265,69.73875437],[28.84348046,47.0246417,69.9218238]]]},"geometry_name":"geom","properties":{"gid":null,"shape_leng":null,"layer":7001,"medium":"T","z":64.93,"layer_name":"road_centre_line"}},{"type":"Feature","id":"lm17_line_road_centre_line.160630","geometry":{"type":"MultiLineString","coordinates":[[[28.84348046,47.0246417,69.9218238],[28.84345892,47.02462738,69.915805]]]},"geometry_name":"geom","properties":{"gid":null,"shape_leng":null,"layer":7001,"medium":"T","z":69.92,"layer_name":"road_centre_line"}},{"type":"Feature","id":"lm17_line_road_centre_line.160633","geometry":{"type":"MultiLineString","coordinates":[[[28.83983525,47.0255876,69.35833028],[28.84043941,47.02520761,70.18839875],[28.84094723,47.02488226,70.58076655]]]},"geometry_name":"geom","properties":{"gid":null,"shape_leng":null,"layer":7001,"medium":"T","z":69.97,"layer_name":"road_centre_line"}},{"type":"Feature","id":"lm17_line_road_centre_line.160634","geometry":{"type":"MultiLineString","coordinates":[[[28.84094723,47.02488226,70.58076655],[28.84097187,47.02486647,70.58076655]]]},"geometry_name":"geom","properties":{"gid":null,"shape_leng":null,"layer":7001,"medium":"T","z":70.58,"layer_name":"road_centre_line"}},{"type":"Feature","id":"lm17_line_road_centre_line.160635","geometry":{"type":"MultiLineString","coordinates":[[[28.84097187,47.02486647,70.58076655],[28.84099762,47.0248503,70.59769827]]]},"geometry_name":"geom","properties":{"gid":null,"shape_leng":null,"layer":7001,"medium":"T","z":70.59,"layer_name":"road_centre_line"}},{"type":"Feature","id":"lm17_line_road_centre_line.160636","geometry":{"type":"MultiLineString","coordinates":[[[28.84099762,47.0248503,70.59769827],[28.84102185,47.0248351,70.61362471]]]},"geometry_name":"geom","properties":{"gid":null,"shape_leng":null,"layer":7001,"medium":"T","z":70.61,"layer_name":"road_centre_line"}},{"type":"Feature","id":"lm17_line_road_centre_line.160637","geometry":{"type":"MultiLineString","coordinates":[[[28.84102185,47.0248351,70.61362471],[28.84104608,47.02481989,70.61400487]]]},"geometry_name":"geom","properties":{"gid":null,"shape_leng":null,"layer":7001,"medium":"T","z":70.61,"layer_name":"road_centre_line"}},{"type":"Feature","id":"lm17_line_road_centre_line.160638","geometry":{"type":"MultiLineString","coordinates":[[[28.84104608,47.02481989,70.61400487],[28.84156873,47.02449182,70.97313435],[28.84239482,47.02397885,72.05851953]]]},"geometry_name":"geom","properties":{"gid":null,"shape_leng":null,"layer":7001,"medium":"T","z":71.34,"layer_name":"road_centre_line"}},{"type":"Feature","id":"lm17_line_road_centre_line.160639","geometry":{"type":"MultiLineString","coordinates":[[[28.84239482,47.02397885,72.05851953],[28.84241916,47.02396373,71.99982712]]]},"geometry_name":"geom","properties":{"gid":null,"shape_leng":null,"layer":7001,"medium":"T","z":72.03,"layer_name":"road_centre_line"}},{"type":"Feature","id":"lm17_line_road_centre_line.160640","geometry":{"type":"MultiLineString","coordinates":[[[28.84241916,47.02396373,71.99982712],[28.84246786,47.02393349,72.05861244]]]},"geometry_name":"geom","properties":{"gid":null,"shape_leng":null,"layer":7001,"medium":"T","z":72.03,"layer_name":"road_centre_line"}},{"type":"Feature","id":"lm17_line_road_centre_line.160641","geometry":{"type":"MultiLineString","coordinates":[[[28.84246786,47.02393349,72.05861244],[28.84254299,47.02388894,72.04993062]]]},"geometry_name":"geom","properties":{"gid":null,"shape_leng":null,"layer":7001,"medium":"T","z":72.05,"layer_name":"road_centre_line"}},{"type":"Feature","id":"lm17_line_road_centre_line.160642","geometry":{"type":"MultiLineString","coordinates":[[[28.84254299,47.02388894,72.04993062],[28.84319493,47.02350236,71.66624464],[28.84369628,47.02320338,70.88150904],[28.84389547,47.02310926,70.87944547]]]},"geometry_name":"geom","properties":{"gid":null,"shape_leng":null,"layer":7001,"medium":"T","z":71.46,"layer_name":"road_centre_line"}},{"type":"Feature","id":"lm17_line_road_centre_line.160643","geometry":{"type":"MultiLineString","coordinates":[[[28.84389547,47.02310926,70.87944547],[28.84391985,47.02309774,70.88150904]]]},"geometry_name":"geom","properties":{"gid":null,"shape_leng":null,"layer":7001,"medium":"T","z":70.88,"layer_name":"road_centre_line"}},{"type":"Feature","id":"lm17_line_road_centre_line.160644","geometry":{"type":"MultiLineString","coordinates":[[[28.84391985,47.02309774,70.88150904],[28.84397117,47.02307349,70.89177918]]]},"geometry_name":"geom","properties":{"gid":null,"shape_leng":null,"layer":7001,"medium":"T","z":70.89,"layer_name":"road_centre_line"}},{"type":"Feature","id":"lm17_line_road_centre_line.160645","geometry":{"type":"MultiLineString","coordinates":[[[28.84397117,47.02307349,70.89177918],[28.84401471,47.02305293,70.88150904]]]},"geometry_name":"geom","properties":{"gid":null,"shape_leng":null,"layer":7001,"medium":"T","z":70.89,"layer_name":"road_centre_line"}},{"type":"Feature","id":"lm17_line_road_centre_line.160646","geometry":{"type":"MultiLineString","coordinates":[[[28.84401471,47.02305293,70.88150904],[28.84408694,47.02301879,70.88150904],[28.84500056,47.02256347,70.48914124],[28.84564633,47.02222964,69.31053897],[28.8462993,47.02190415,67.74431718]]]},"geometry_name":"geom","properties":{"gid":null,"shape_leng":null,"layer":7001,"medium":"T","z":69.31,"layer_name":"road_centre_line"}},{"type":"Feature","id":"lm17_line_road_centre_line.160647","geometry":{"type":"MultiLineString","coordinates":[[[28.8462993,47.02190415,67.74431718],[28.84632098,47.02189334,67.73507233]]]},"geometry_name":"geom","properties":{"gid":null,"shape_leng":null,"layer":7001,"medium":"T","z":67.74,"layer_name":"road_centre_line"}},{"type":"Feature","id":"lm17_line_road_centre_line.160648","geometry":{"type":"MultiLineString","coordinates":[[[28.84632098,47.02189334,67.73507233],[28.84635846,47.02187556,67.72695814]]]},"geometry_name":"geom","properties":{"gid":null,"shape_leng":null,"layer":7001,"medium":"T","z":67.73,"layer_name":"road_centre_line"}},{"type":"Feature","id":"lm17_line_road_centre_line.160649","geometry":{"type":"MultiLineString","coordinates":[[[28.84635846,47.02187556,67.72695814],[28.84669808,47.02171443,67.73507231],[28.84675324,47.02168994,67.49570363],[28.84680604,47.02166313,67.32964417],[28.84685628,47.0216341,67.23754932]]]},"geometry_name":"geom","properties":{"gid":null,"shape_leng":null,"layer":7001,"medium":"T","z":67.49,"layer_name":"road_centre_line"}},{"type":"Feature","id":"lm17_line_road_centre_line.160650","geometry":{"type":"MultiLineString","coordinates":[[[28.84685628,47.0216341,67.23754932],[28.84688245,47.02161694,67.26910286]]]},"geometry_name":"geom","properties":{"gid":null,"shape_leng":null,"layer":7001,"medium":"T","z":67.25,"layer_name":"road_centre_line"}},{"type":"Feature","id":"lm17_line_road_centre_line.160651","geometry":{"type":"MultiLineString","coordinates":[[[28.84688245,47.02161694,67.26910286],[28.84690375,47.02160298,67.21978251],[28.84694828,47.02156987,67.27641387],[28.84697205,47.02155035,67.34120567],[28.8471145,47.02131689,67.34120567],[28.84740766,47.02087853,66.55347235],[28.84774045,47.02034559,66.15960569],[28.84782837,47.02021758,66.11027207]]]},"geometry_name":"geom","properties":{"gid":null,"shape_leng":null,"layer":7001,"medium":"T","z":66.73,"layer_name":"road_centre_line"}},{"type":"Feature","id":"lm17_line_road_centre_line.160652","geometry":{"type":"MultiLineString","coordinates":[[[28.84782837,47.02021758,66.11027207],[28.84785225,47.02018281,66.15960569]]]},"geometry_name":"geom","properties":{"gid":null,"shape_leng":null,"layer":7001,"medium":"T","z":66.13,"layer_name":"road_centre_line"}},{"type":"Feature","id":"lm17_line_road_centre_line.160653","geometry":{"type":"MultiLineString","coordinates":[[[28.84785225,47.02018281,66.15960569],[28.84787258,47.02015752,66.02787495]]]},"geometry_name":"geom","properties":{"gid":null,"shape_leng":null,"layer":7001,"medium":"T","z":66.09,"layer_name":"road_centre_line"}},{"type":"Feature","id":"lm17_line_road_centre_line.160654","geometry":{"type":"MultiLineString","coordinates":[[[28.84787258,47.02015752,66.02787495],[28.84821391,47.01973267,65.76573903],[28.84861523,47.01921842,65.37187237],[28.84897704,47.01877288,64.58413905],[28.84925896,47.01844068,63.79640573]]]},"geometry_name":"geom","properties":{"gid":null,"shape_leng":null,"layer":7001,"medium":"T","z":64.91,"layer_name":"road_centre_line"}},{"type":"Feature","id":"lm17_line_road_centre_line.160655","geometry":{"type":"MultiLineString","coordinates":[[[28.84925896,47.01844068,63.79640573],[28.84925896,47.01844068,63.79640573],[28.84932816,47.01836119,64.06998792]]]},"geometry_name":"geom","properties":{"gid":null,"shape_leng":null,"layer":7001,"medium":"T","z":63.93,"layer_name":"road_centre_line"}},{"type":"Feature","id":"lm17_line_road_centre_line.160656","geometry":{"type":"MultiLineString","coordinates":[[[28.84097187,47.02486647,70.58076655],[28.84098001,47.0248882,70.58076655],[28.84098678,47.02490006,70.56868342]]]},"geometry_name":"geom","properties":{"gid":null,"shape_leng":null,"layer":7001,"medium":"T","z":70.57,"layer_name":"road_centre_line"}},{"type":"Feature","id":"lm17_line_road_centre_line.160658","geometry":{"type":"MultiLineString","coordinates":[[[28.84098678,47.02490006,70.56868342],[28.84099193,47.02490909,70.58076655],[28.84100744,47.02492885,70.58076655],[28.84102632,47.02494719,70.58076655],[28.8410483,47.02496384,70.58076655],[28.84105871,47.02497047,70.58076655],[28.84119057,47.02507481,70.18770912]]]},"geometry_name":"geom","properties":{"gid":null,"shape_leng":null,"layer":7001,"medium":"T","z":70.38,"layer_name":"road_centre_line"}},{"type":"Feature","id":"lm17_line_road_centre_line.160671","geometry":{"type":"MultiLineString","coordinates":[[[28.84277514,47.02516101,69.65401922],[28.84329659,47.02475933,70.0146452],[28.84340833,47.02468784,69.92848327]]]},"geometry_name":"geom","properties":{"gid":null,"shape_leng":null,"layer":7001,"medium":"T","z":69.83,"layer_name":"road_centre_line"}},{"type":"Feature","id":"lm17_line_road_centre_line.160672","geometry":{"type":"MultiLineString","coordinates":[[[28.84340833,47.02468784,69.92848327],[28.84348046,47.0246417,69.9218238]]]},"geometry_name":"geom","properties":{"gid":null,"shape_leng":null,"layer":7001,"medium":"T","z":69.93,"layer_name":"road_centre_line"}},{"type":"Feature","id":"lm17_line_road_centre_line.160681","geometry":{"type":"MultiLineString","coordinates":[[[28.84401471,47.02305293,70.88150904],[28.8439845,47.02302893,70.88150904]]]},"geometry_name":"geom","properties":{"gid":null,"shape_leng":null,"layer":7001,"medium":"T","z":70.88,"layer_name":"road_centre_line"}},{"type":"Feature","id":"lm17_line_road_centre_line.160682","geometry":{"type":"MultiLineString","coordinates":[[[28.8439845,47.02302893,70.88150904],[28.84363691,47.02275277,71.94177715],[28.84330445,47.02250251,72.92506341],[28.84297439,47.02228787,73.31837791],[28.84281444,47.02216731,73.63147902],[28.8427184,47.0221112,73.89186563]]]},"geometry_name":"geom","properties":{"gid":null,"shape_leng":null,"layer":7001,"medium":"T","z":72.39,"layer_name":"road_centre_line"}},{"type":"Feature","id":"lm17_line_road_centre_line.160683","geometry":{"type":"MultiLineString","coordinates":[[[28.84671528,47.0194061,69.27556967],[28.84684462,47.01947509,68.92486825],[28.84766762,47.02005839,66.54822843],[28.84781817,47.02015985,66.15202516]]]},"geometry_name":"geom","properties":{"gid":null,"shape_leng":null,"layer":7001,"medium":"T","z":67.71,"layer_name":"road_centre_line"}},{"type":"Feature","id":"lm17_line_road_centre_line.160684","geometry":{"type":"MultiLineString","coordinates":[[[28.84781817,47.02015985,66.15202516],[28.84785225,47.02018281,66.15960569]]]},"geometry_name":"geom","properties":{"gid":null,"shape_leng":null,"layer":7001,"medium":"T","z":66.16,"layer_name":"road_centre_line"}},{"type":"Feature","id":"lm17_line_road_centre_line.160685","geometry":{"type":"MultiLineString","coordinates":[[[28.84785225,47.02018281,66.15960569],[28.84788661,47.02020685,66.15960569]]]},"geometry_name":"geom","properties":{"gid":null,"shape_leng":null,"layer":7001,"medium":"T","z":66.16,"layer_name":"road_centre_line"}},{"type":"Feature","id":"lm17_line_road_centre_line.160686","geometry":{"type":"MultiLineString","coordinates":[[[28.84788661,47.02020685,66.15960569],[28.84838748,47.02055726,64.1905171],[28.84884463,47.02087845,63.40288166],[28.84894403,47.02094482,62.72103997]]]},"geometry_name":"geom","properties":{"gid":null,"shape_leng":null,"layer":7001,"medium":"T","z":64.44,"layer_name":"road_centre_line"}},{"type":"Feature","id":"lm17_line_road_centre_line.160687","geometry":{"type":"MultiLineString","coordinates":[[[28.84894403,47.02094482,62.72103997],[28.84895593,47.02095277,62.71097884]]]},"geometry_name":"geom","properties":{"gid":null,"shape_leng":null,"layer":7001,"medium":"T","z":62.72,"layer_name":"road_centre_line"}},{"type":"Feature","id":"lm17_line_road_centre_line.160688","geometry":{"type":"MultiLineString","coordinates":[[[28.84895593,47.02095277,62.71097884],[28.84898234,47.02096968,62.68840939]]]},"geometry_name":"geom","properties":{"gid":null,"shape_leng":null,"layer":7001,"medium":"T","z":62.7,"layer_name":"road_centre_line"}},{"type":"Feature","id":"lm17_line_road_centre_line.160689","geometry":{"type":"MultiLineString","coordinates":[[[28.8478682,47.0218923,64.19713306],[28.84789009,47.02187417,64.15827612]]]},"geometry_name":"geom","properties":{"gid":null,"shape_leng":null,"layer":7001,"medium":"T","z":64.18,"layer_name":"road_centre_line"}},{"type":"Feature","id":"lm17_line_road_centre_line.160690","geometry":{"type":"MultiLineString","coordinates":[[[28.84789009,47.02187417,64.15827612],[28.84898234,47.02096968,62.68840939]]]},"geometry_name":"geom","properties":{"gid":null,"shape_leng":null,"layer":7001,"medium":"T","z":63.42,"layer_name":"road_centre_line"}},{"type":"Feature","id":"lm17_line_road_centre_line.160691","geometry":{"type":"MultiLineString","coordinates":[[[28.84394403,47.02312459,70.88150904],[28.84453077,47.02377613,69.28961023]]]},"geometry_name":"geom","properties":{"gid":null,"shape_leng":null,"layer":7001,"medium":"T","z":70.09,"layer_name":"road_centre_line"}},{"type":"Feature","id":"lm17_line_road_centre_line.160692","geometry":{"type":"MultiLineString","coordinates":[[[28.84453077,47.02377613,69.28961023],[28.8445429,47.0237896,69.30844098],[28.84454651,47.02379334,69.29658607]]]},"geometry_name":"geom","properties":{"gid":null,"shape_leng":null,"layer":7001,"medium":"T","z":69.3,"layer_name":"road_centre_line"}},{"type":"Feature","id":"lm17_line_road_centre_line.160693","geometry":{"type":"MultiLineString","coordinates":[[[28.84454651,47.02379334,69.29658607],[28.84456317,47.0238106,69.29730235]]]},"geometry_name":"geom","properties":{"gid":null,"shape_leng":null,"layer":7001,"medium":"T","z":69.3,"layer_name":"road_centre_line"}},{"type":"Feature","id":"lm17_line_road_centre_line.160694","geometry":{"type":"MultiLineString","coordinates":[[[28.84456317,47.0238106,69.29730235],[28.84466271,47.02391378,68.91472776],[28.8447364,47.02397761,68.91472776],[28.84486267,47.02405634,68.52101455],[28.84507192,47.02416775,68.12730134],[28.84540659,47.02432696,66.94510059],[28.84624153,47.02468848,63.39690671],[28.84646616,47.02477645,63.01784919]]]},"geometry_name":"geom","properties":{"gid":null,"shape_leng":null,"layer":7001,"medium":"T","z":66.16,"layer_name":"road_centre_line"}},{"type":"Feature","id":"lm17_line_road_centre_line.160695","geometry":{"type":"MultiLineString","coordinates":[[[28.84646616,47.02477645,63.01784919],[28.84650041,47.02478986,63.00266294]]]},"geometry_name":"geom","properties":{"gid":null,"shape_leng":null,"layer":7001,"medium":"T","z":63.01,"layer_name":"road_centre_line"}},{"type":"Feature","id":"lm17_line_road_centre_line.160698","geometry":{"type":"MultiLineString","coordinates":[[[28.84643671,47.02596539,60.205579],[28.84654213,47.0258759,60.33781125],[28.8467468,47.02572709,60.33781125],[28.84709503,47.02541243,60.14005324],[28.84726686,47.02525847,59.74453723],[28.84755366,47.02500516,59.74453723],[28.84759996,47.02496719,59.69456776]]]},"geometry_name":"geom","properties":{"gid":null,"shape_leng":null,"layer":7001,"medium":"T","z":60.02,"layer_name":"road_centre_line"}},{"type":"Feature","id":"lm17_line_road_centre_line.160699","geometry":{"type":"MultiLineString","coordinates":[[[28.84759996,47.02496719,59.69456776],[28.84761904,47.02495153,59.69456776]]]},"geometry_name":"geom","properties":{"gid":null,"shape_leng":null,"layer":7001,"medium":"T","z":59.69,"layer_name":"road_centre_line"}},{"type":"Feature","id":"lm17_line_road_centre_line.160700","geometry":{"type":"MultiLineString","coordinates":[[[28.84761904,47.02495153,59.69456776],[28.84792009,47.0247046,59.34902121],[28.84830673,47.02439107,59.15126321],[28.84869398,47.02409096,58.9535052],[28.84874086,47.02405145,58.79548538]]]},"geometry_name":"geom","properties":{"gid":null,"shape_leng":null,"layer":7001,"medium":"T","z":59.25,"layer_name":"road_centre_line"}},{"type":"Feature","id":"lm17_line_road_centre_line.160701","geometry":{"type":"MultiLineString","coordinates":[[[28.84874086,47.02405145,58.79548538],[28.848764,47.02403195,58.78911331]]]},"geometry_name":"geom","properties":{"gid":null,"shape_leng":null,"layer":7001,"medium":"T","z":58.79,"layer_name":"road_centre_line"}},{"type":"Feature","id":"lm17_line_road_centre_line.160702","geometry":{"type":"MultiLineString","coordinates":[[[28.848764,47.02403195,58.78911331],[28.84886245,47.02394898,58.55798919],[28.84922439,47.02367252,58.36023118],[28.84944786,47.02349323,57.96471517],[28.85001932,47.02302231,56.58040912],[28.85017828,47.02289454,56.38265111],[28.85039359,47.02272713,55.9871351],[28.85048945,47.02264787,56.00712238]]]},"geometry_name":"geom","properties":{"gid":null,"shape_leng":null,"layer":7001,"medium":"T","z":57.39,"layer_name":"road_centre_line"}},{"type":"Feature","id":"lm17_line_road_centre_line.160709","geometry":{"type":"MultiLineString","coordinates":[[[28.84898234,47.02096968,62.68840939],[28.8490165,47.02094489,62.71900356]]]},"geometry_name":"geom","properties":{"gid":null,"shape_leng":null,"layer":7001,"medium":"T","z":62.7,"layer_name":"road_centre_line"}},{"type":"Feature","id":"lm17_line_road_centre_line.160710","geometry":{"type":"MultiLineString","coordinates":[[[28.8490165,47.02094489,62.71900356],[28.84901789,47.02094388,62.68973407]]]},"geometry_name":"geom","properties":{"gid":null,"shape_leng":null,"layer":7001,"medium":"T","z":62.7,"layer_name":"road_centre_line"}},{"type":"Feature","id":"lm17_line_road_centre_line.160711","geometry":{"type":"MultiLineString","coordinates":[[[28.84901789,47.02094388,62.68973407],[28.84940137,47.02066559,61.49465862]]]},"geometry_name":"geom","properties":{"gid":null,"shape_leng":null,"layer":7001,"medium":"T","z":62.09,"layer_name":"road_centre_line"}},{"type":"Feature","id":"lm17_line_road_centre_line.160712","geometry":{"type":"MultiLineString","coordinates":[[[28.84940137,47.02066559,61.49465862],[28.84942234,47.02065038,61.47567056]]]},"geometry_name":"geom","properties":{"gid":null,"shape_leng":null,"layer":7001,"medium":"T","z":61.49,"layer_name":"road_centre_line"}},{"type":"Feature","id":"lm17_line_road_centre_line.160713","geometry":{"type":"MultiLineString","coordinates":[[[28.84942234,47.02065038,61.47567056],[28.84944313,47.02063529,61.47567056]]]},"geometry_name":"geom","properties":{"gid":null,"shape_leng":null,"layer":7001,"medium":"T","z":61.48,"layer_name":"road_centre_line"}},{"type":"Feature","id":"lm17_line_road_centre_line.160714","geometry":{"type":"MultiLineString","coordinates":[[[28.84944313,47.02063529,61.47567056],[28.84984315,47.020345,60.3158055],[28.85081956,47.01961519,58.73406956],[28.85089703,47.01956742,58.95299646]]]},"geometry_name":"geom","properties":{"gid":null,"shape_leng":null,"layer":7001,"medium":"T","z":60.1,"layer_name":"road_centre_line"}},{"type":"Feature","id":"lm17_line_road_centre_line.160716","geometry":{"type":"MultiLineString","coordinates":[[[28.84898234,47.02096968,62.68840939],[28.84897954,47.02093564,62.62356511]]]},"geometry_name":"geom","properties":{"gid":null,"shape_leng":null,"layer":7001,"medium":"T","z":62.66,"layer_name":"road_centre_line"}},{"type":"Feature","id":"lm17_line_road_centre_line.160717","geometry":{"type":"MultiLineString","coordinates":[[[28.84897954,47.02093564,62.62356511],[28.84897985,47.02091993,62.72499957]]]},"geometry_name":"geom","properties":{"gid":null,"shape_leng":null,"layer":7001,"medium":"T","z":62.67,"layer_name":"road_centre_line"}},{"type":"Feature","id":"lm17_line_road_centre_line.160718","geometry":{"type":"MultiLineString","coordinates":[[[28.84897985,47.02091993,62.72499957],[28.8489802,47.02090235,62.73304895],[28.84898435,47.02086878,62.69370091],[28.84899194,47.02083549,62.61343408],[28.84900311,47.02080225,62.49092466],[28.84914092,47.02056762,62.28468771]]]},"geometry_name":"geom","properties":{"gid":null,"shape_leng":null,"layer":7001,"medium":"T","z":62.51,"layer_name":"road_centre_line"}},{"type":"Feature","id":"lm17_line_road_centre_line.160719","geometry":{"type":"MultiLineString","coordinates":[[[28.84914092,47.02056762,62.28468771],[28.84914294,47.02056418,62.29343992],[28.84915043,47.0205481,62.29909009]]]},"geometry_name":"geom","properties":{"gid":null,"shape_leng":null,"layer":7001,"medium":"T","z":62.29,"layer_name":"road_centre_line"}},{"type":"Feature","id":"lm17_line_road_centre_line.160720","geometry":{"type":"MultiLineString","coordinates":[[[28.84915043,47.0205481,62.29909009],[28.84940484,47.02000225,62.49092466],[28.84959754,47.01964077,62.29343992],[28.84982965,47.01916134,61.70098572],[28.84996551,47.01893255,61.61921657]]]},"geometry_name":"geom","properties":{"gid":null,"shape_leng":null,"layer":7001,"medium":"T","z":62.06,"layer_name":"road_centre_line"}},{"type":"Feature","id":"lm17_line_road_centre_line.160721","geometry":{"type":"MultiLineString","coordinates":[[[28.84996551,47.01893255,61.61921657],[28.85002106,47.018839,61.76295497]]]},"geometry_name":"geom","properties":{"gid":null,"shape_leng":null,"layer":7001,"medium":"T","z":61.69,"layer_name":"road_centre_line"}},{"type":"Feature","id":"lm17_line_road_centre_line.160722","geometry":{"type":"MultiLineString","coordinates":[[[28.84915043,47.0205481,62.29909009],[28.84918274,47.02056025,62.29754322]]]},"geometry_name":"geom","properties":{"gid":null,"shape_leng":null,"layer":7001,"medium":"T","z":62.3,"layer_name":"road_centre_line"}},{"type":"Feature","id":"lm17_line_road_centre_line.160723","geometry":{"type":"MultiLineString","coordinates":[[[28.84918274,47.02056025,62.29754322],[28.8493896,47.02063807,61.49333959]]]},"geometry_name":"geom","properties":{"gid":null,"shape_leng":null,"layer":7001,"medium":"T","z":61.9,"layer_name":"road_centre_line"}},{"type":"Feature","id":"lm17_line_road_centre_line.160724","geometry":{"type":"MultiLineString","coordinates":[[[28.8493896,47.02063807,61.49333959],[28.84942234,47.02065038,61.47567056]]]},"geometry_name":"geom","properties":{"gid":null,"shape_leng":null,"layer":7001,"medium":"T","z":61.48,"layer_name":"road_centre_line"}},{"type":"Feature","id":"lm17_line_road_centre_line.160725","geometry":{"type":"MultiLineString","coordinates":[[[28.84942234,47.02065038,61.47567056],[28.84945418,47.02066334,61.46046792]]]},"geometry_name":"geom","properties":{"gid":null,"shape_leng":null,"layer":7001,"medium":"T","z":61.47,"layer_name":"road_centre_line"}},{"type":"Feature","id":"lm17_line_road_centre_line.160726","geometry":{"type":"MultiLineString","coordinates":[[[28.84945418,47.02066334,61.46046792],[28.84954466,47.02070017,61.47567056],[28.84990321,47.02084701,60.48745973],[28.85026665,47.02100666,58.70868024],[28.85087639,47.02125411,56.13933209],[28.85134277,47.02143773,55.34876343],[28.85155557,47.02152672,54.55819477],[28.85166673,47.02156687,54.27897487]]]},"geometry_name":"geom","properties":{"gid":null,"shape_leng":null,"layer":7001,"medium":"T","z":57.88,"layer_name":"road_centre_line"}},{"type":"Feature","id":"lm17_line_road_centre_line.160728","geometry":{"type":"MultiLineString","coordinates":[[[28.84685628,47.0216341,67.23754932],[28.84690358,47.02164671,67.23164162]]]},"geometry_name":"geom","properties":{"gid":null,"shape_leng":null,"layer":7001,"medium":"T","z":67.23,"layer_name":"road_centre_line"}},{"type":"Feature","id":"lm17_line_road_centre_line.160729","geometry":{"type":"MultiLineString","coordinates":[[[28.84690358,47.02164671,67.23164162],[28.84691565,47.02164993,67.36917229]]]},"geometry_name":"geom","properties":{"gid":null,"shape_leng":null,"layer":7001,"medium":"T","z":67.3,"layer_name":"road_centre_line"}},{"type":"Feature","id":"lm17_line_road_centre_line.160730","geometry":{"type":"MultiLineString","coordinates":[[[28.84691565,47.02164993,67.36917229],[28.8469454,47.02165786,67.43515103],[28.84694988,47.02165887,67.36619764]]]},"geometry_name":"geom","properties":{"gid":null,"shape_leng":null,"layer":7001,"medium":"T","z":67.4,"layer_name":"road_centre_line"}},{"type":"Feature","id":"lm17_line_road_centre_line.160731","geometry":{"type":"MultiLineString","coordinates":[[[28.84694988,47.02165887,67.36619764],[28.8471015,47.0216932,67.03994761],[28.8478682,47.0218923,64.19713306]]]},"geometry_name":"geom","properties":{"gid":null,"shape_leng":null,"layer":7001,"medium":"T","z":65.78,"layer_name":"road_centre_line"}},{"type":"Feature","id":"lm17_line_road_centre_line.160732","geometry":{"type":"MultiLineString","coordinates":[[[28.8478682,47.0218923,64.19713306],[28.84790326,47.02190226,64.18653688]]]},"geometry_name":"geom","properties":{"gid":null,"shape_leng":null,"layer":7001,"medium":"T","z":64.19,"layer_name":"road_centre_line"}},{"type":"Feature","id":"lm17_line_road_centre_line.160733","geometry":{"type":"MultiLineString","coordinates":[[[28.84790326,47.02190226,64.18653688],[28.84826458,47.02200487,62.61631938],[28.84911277,47.02223806,59.45469201],[28.84951504,47.02235489,58.26908174],[28.84999515,47.0224817,57.08347148],[28.85047967,47.02262068,55.9871351]]]},"geometry_name":"geom","properties":{"gid":null,"shape_leng":null,"layer":7001,"medium":"T","z":60.09,"layer_name":"road_centre_line"}},{"type":"Feature","id":"lm17_line_road_centre_line.160738","geometry":{"type":"MultiLineString","coordinates":[[[28.84348046,47.0246417,69.9218238],[28.84356414,47.02455822,69.94008018]]]},"geometry_name":"geom","properties":{"gid":null,"shape_leng":null,"layer":7001,"medium":"T","z":69.93,"layer_name":"road_centre_line"}},{"type":"Feature","id":"lm17_line_road_centre_line.160739","geometry":{"type":"MultiLineString","coordinates":[[[28.84356414,47.02455822,69.94008018],[28.84357348,47.0245489,69.72499683],[28.84403904,47.02419198,69.9218238],[28.84433905,47.0239392,69.52816986],[28.84448645,47.0238349,69.33134288],[28.84452525,47.02380805,69.28533521]]]},"geometry_name":"geom","properties":{"gid":null,"shape_leng":null,"layer":7001,"medium":"T","z":69.61,"layer_name":"road_centre_line"}},{"type":"Feature","id":"lm17_line_road_centre_line.160740","geometry":{"type":"MultiLineString","coordinates":[[[28.84457285,47.02378388,69.29120432],[28.84466087,47.02375226,68.90293212],[28.84494219,47.0236412,68.3124512],[28.84556723,47.023415,67.52470432],[28.84616059,47.02319744,66.53947199],[28.84664441,47.02302342,65.7310773]]]},"geometry_name":"geom","properties":{"gid":null,"shape_leng":null,"layer":7001,"medium":"T","z":67.51,"layer_name":"road_centre_line"}},{"type":"Feature","id":"lm17_line_road_centre_line.160741","geometry":{"type":"MultiLineString","coordinates":[[[28.84664441,47.02302342,65.7310773],[28.84668126,47.02301017,65.75128613]]]},"geometry_name":"geom","properties":{"gid":null,"shape_leng":null,"layer":7001,"medium":"T","z":65.74,"layer_name":"road_centre_line"}},{"type":"Feature","id":"lm17_line_road_centre_line.160743","geometry":{"type":"MultiLineString","coordinates":[[[28.84631655,47.02603154,60.08698237],[28.84635764,47.02569626,60.64174862],[28.84640335,47.02543998,61.234793],[28.84648034,47.02494258,62.42088177],[28.84650041,47.02478986,63.00266294]]]},"geometry_name":"geom","properties":{"gid":null,"shape_leng":null,"layer":7001,"medium":"T","z":61.54,"layer_name":"road_centre_line"}},{"type":"Feature","id":"lm17_line_road_centre_line.160744","geometry":{"type":"MultiLineString","coordinates":[[[28.84650041,47.02478986,63.00266294],[28.84650391,47.02476791,63.01975983]]]},"geometry_name":"geom","properties":{"gid":null,"shape_leng":null,"layer":7001,"medium":"T","z":63.01,"layer_name":"road_centre_line"}},{"type":"Feature","id":"lm17_line_road_centre_line.160745","geometry":{"type":"MultiLineString","coordinates":[[[28.84650391,47.02476791,63.01975983],[28.84656883,47.02436172,63.59570732],[28.84662914,47.02386718,64.58411463],[28.8466535,47.02357052,64.97947755],[28.84666825,47.02327287,65.39719863]]]},"geometry_name":"geom","properties":{"gid":null,"shape_leng":null,"layer":7001,"medium":"T","z":64.21,"layer_name":"road_centre_line"}},{"type":"Feature","id":"lm17_line_road_centre_line.160746","geometry":{"type":"MultiLineString","coordinates":[[[28.84666825,47.02327287,65.39719863],[28.8466696,47.02324557,65.42705315]]]},"geometry_name":"geom","properties":{"gid":null,"shape_leng":null,"layer":7001,"medium":"T","z":65.41,"layer_name":"road_centre_line"}},{"type":"Feature","id":"lm17_line_road_centre_line.160747","geometry":{"type":"MultiLineString","coordinates":[[[28.8466696,47.02324557,65.42705315],[28.84668011,47.02303345,65.77389337]]]},"geometry_name":"geom","properties":{"gid":null,"shape_leng":null,"layer":7001,"medium":"T","z":65.6,"layer_name":"road_centre_line"}},{"type":"Feature","id":"lm17_line_road_centre_line.160748","geometry":{"type":"MultiLineString","coordinates":[[[28.84668011,47.02303345,65.77389337],[28.84668126,47.02301017,65.75128613]]]},"geometry_name":"geom","properties":{"gid":null,"shape_leng":null,"layer":7001,"medium":"T","z":65.76,"layer_name":"road_centre_line"}},{"type":"Feature","id":"lm17_line_road_centre_line.160749","geometry":{"type":"MultiLineString","coordinates":[[[28.84668126,47.02301017,65.75128613],[28.84669169,47.02292529,65.81899759],[28.84669456,47.02290194,65.80085076]]]},"geometry_name":"geom","properties":{"gid":null,"shape_leng":null,"layer":7001,"medium":"T","z":65.79,"layer_name":"road_centre_line"}},{"type":"Feature","id":"lm17_line_road_centre_line.160750","geometry":{"type":"MultiLineString","coordinates":[[[28.84669456,47.02290194,65.80085076],[28.84674219,47.02251456,66.14664905],[28.84677848,47.02220275,66.73969343]]]},"geometry_name":"geom","properties":{"gid":null,"shape_leng":null,"layer":7001,"medium":"T","z":66.27,"layer_name":"road_centre_line"}},{"type":"Feature","id":"lm17_line_road_centre_line.160751","geometry":{"type":"MultiLineString","coordinates":[[[28.84677848,47.02220275,66.73969343],[28.84682161,47.02196171,67.13505635],[28.84684861,47.02184555,67.2214755],[28.84691565,47.02164993,67.36917229]]]},"geometry_name":"geom","properties":{"gid":null,"shape_leng":null,"layer":7001,"medium":"T","z":67.05,"layer_name":"road_centre_line"}},{"type":"Feature","id":"lm17_line_road_centre_line.160752","geometry":{"type":"MultiLineString","coordinates":[[[28.8466696,47.02324557,65.42705315],[28.84670518,47.02325799,65.41111108]]]},"geometry_name":"geom","properties":{"gid":null,"shape_leng":null,"layer":7001,"medium":"T","z":65.42,"layer_name":"road_centre_line"}},{"type":"Feature","id":"lm17_line_road_centre_line.160753","geometry":{"type":"MultiLineString","coordinates":[[[28.84670518,47.02325799,65.41111108],[28.84706902,47.02338501,64.63770865],[28.84764759,47.02359603,61.08565839],[28.84804258,47.02374904,59.90164164],[28.8484841,47.02392525,59.11229714],[28.84873484,47.02402084,58.79767172]]]},"geometry_name":"geom","properties":{"gid":null,"shape_leng":null,"layer":7001,"medium":"T","z":62.1,"layer_name":"road_centre_line"}},{"type":"Feature","id":"lm17_line_road_centre_line.160754","geometry":{"type":"MultiLineString","coordinates":[[[28.84873484,47.02402084,58.79767172],[28.848764,47.02403195,58.78911331]]]},"geometry_name":"geom","properties":{"gid":null,"shape_leng":null,"layer":7001,"medium":"T","z":58.79,"layer_name":"road_centre_line"}},{"type":"Feature","id":"lm17_line_road_centre_line.160755","geometry":{"type":"MultiLineString","coordinates":[[[28.84759996,47.02496719,59.69456776],[28.84762773,47.02497953,59.69185721]]]},"geometry_name":"geom","properties":{"gid":null,"shape_leng":null,"layer":7001,"medium":"T","z":59.69,"layer_name":"road_centre_line"}},{"type":"Feature","id":"lm17_line_road_centre_line.160756","geometry":{"type":"MultiLineString","coordinates":[[[28.84762773,47.02497953,59.69185721],[28.84786952,47.02508698,59.69456776],[28.848278,47.02527664,60.08984278],[28.84870101,47.02546517,59.69456776],[28.84896967,47.02558618,58.97437827]]]},"geometry_name":"geom","properties":{"gid":null,"shape_leng":null,"layer":7001,"medium":"T","z":59.53,"layer_name":"road_centre_line"}},{"type":"Feature","id":"lm17_line_road_centre_line.160772","geometry":{"type":"MultiLineString","coordinates":[[[28.84910659,47.01785277,65.35558588],[28.84947806,47.01809937,64.08322167],[28.84983041,47.01833364,63.04243472],[28.84987723,47.01836516,62.83596868],[28.84992061,47.01839891,62.65015534],[28.84996033,47.0184347,62.48595793],[28.84999619,47.01847235,62.34422759],[28.85002798,47.01851167,62.22569901],[28.85005556,47.01855245,62.13098661],[28.85025884,47.01887538,61.26115848]]]},"geometry_name":"geom","properties":{"gid":null,"shape_leng":null,"layer":7001,"medium":"T","z":63.31,"layer_name":"road_centre_line"}},{"type":"Feature","id":"lm17_line_road_centre_line.160797","geometry":{"type":"MultiLineString","coordinates":[[[28.84881785,47.01801033,65.3681488],[28.84932816,47.01836119,64.06998792]]]},"geometry_name":"geom","properties":{"gid":null,"shape_leng":null,"layer":7001,"medium":"T","z":64.72,"layer_name":"road_centre_line"}},{"type":"Feature","id":"lm17_line_road_centre_line.160822","geometry":{"type":"MultiLineString","coordinates":[[[28.84671528,47.0194061,69.27556967],[28.84742591,47.01893743,67.94140334],[28.84811965,47.01847214,66.47749852],[28.84881785,47.01801033,65.3681488]]]},"geometry_name":"geom","properties":{"gid":null,"shape_leng":null,"layer":7001,"medium":"T","z":67.32,"layer_name":"road_centre_line"}},{"type":"Feature","id":"lm17_line_road_centre_line.160823","geometry":{"type":"MultiLineString","coordinates":[[[28.84471433,47.02076065,72.8801582],[28.84472349,47.02075446,72.87457368],[28.84529455,47.02036647,71.97263602],[28.84591345,47.01995977,70.7635167],[28.84668464,47.01942631,69.33309761],[28.84671528,47.0194061,69.27556967]]]},"geometry_name":"geom","properties":{"gid":null,"shape_leng":null,"layer":7001,"medium":"T","z":71.08,"layer_name":"road_centre_line"}},{"type":"Feature","id":"lm17_line_road_centre_line.160824","geometry":{"type":"MultiLineString","coordinates":[[[28.84765303,47.01721022,67.50421966],[28.84806043,47.01748928,66.58550768],[28.84881785,47.01801033,65.3681488]]]},"geometry_name":"geom","properties":{"gid":null,"shape_leng":null,"layer":7001,"medium":"T","z":66.44,"layer_name":"road_centre_line"}},{"type":"Feature","id":"lm17_line_road_centre_line.160833","geometry":{"type":"MultiLineString","coordinates":[[[28.83989318,47.02403343,74.04608871],[28.8399968,47.02396995,74.10529485]]]},"geometry_name":"geom","properties":{"gid":null,"shape_leng":null,"layer":7001,"medium":"T","z":74.08,"layer_name":"road_centre_line"}},{"type":"Feature","id":"lm17_line_road_centre_line.160835","geometry":{"type":"MultiLineString","coordinates":[[[28.84932816,47.01836119,64.06998792],[28.8493617,47.01838421,64.04616759]]]},"geometry_name":"geom","properties":{"gid":null,"shape_leng":null,"layer":7001,"medium":"T","z":64.06,"layer_name":"road_centre_line"}},{"type":"Feature","id":"lm17_line_road_centre_line.160836","geometry":{"type":"MultiLineString","coordinates":[[[28.8493617,47.01838421,64.04616759],[28.84949686,47.01847695,63.58565063],[28.85002106,47.018839,61.76295497]]]},"geometry_name":"geom","properties":{"gid":null,"shape_leng":null,"layer":7001,"medium":"T","z":62.9,"layer_name":"road_centre_line"}},{"type":"Feature","id":"lm17_line_road_centre_line.160850","geometry":{"type":"MultiLineString","coordinates":[[[28.83989318,47.02403343,74.04608871],[28.84002678,47.0241262,73.62761426],[28.84072186,47.02460883,71.45041798],[28.84099093,47.02481177,70.61376247]]]},"geometry_name":"geom","properties":{"gid":null,"shape_leng":null,"layer":7001,"medium":"T","z":72.33,"layer_name":"road_centre_line"}},{"type":"Feature","id":"lm17_line_road_centre_line.160851","geometry":{"type":"MultiLineString","coordinates":[[[28.84099093,47.02481177,70.61376247],[28.84102185,47.0248351,70.61362471]]]},"geometry_name":"geom","properties":{"gid":null,"shape_leng":null,"layer":7001,"medium":"T","z":70.61,"layer_name":"road_centre_line"}},{"type":"Feature","id":"lm17_line_road_centre_line.160856","geometry":{"type":"MultiLineString","coordinates":[[[28.84246786,47.02393349,72.05861244],[28.84245289,47.02392221,72.10401919],[28.84243684,47.02391022,72.05806265]]]},"geometry_name":"geom","properties":{"gid":null,"shape_leng":null,"layer":7001,"medium":"T","z":72.08,"layer_name":"road_centre_line"}},{"type":"Feature","id":"lm17_line_road_centre_line.160857","geometry":{"type":"MultiLineString","coordinates":[[[28.84243684,47.02391022,72.05806265],[28.8413812,47.02312183,73.2866516],[28.84130575,47.02307936,73.59715108]]]},"geometry_name":"geom","properties":{"gid":null,"shape_leng":null,"layer":7001,"medium":"T","z":72.83,"layer_name":"road_centre_line"}},{"type":"Feature","id":"lm17_line_road_centre_line.160858","geometry":{"type":"MultiLineString","coordinates":[[[28.84471433,47.02076065,72.8801582],[28.84497554,47.02094225,71.8960143],[28.84533713,47.02118964,70.51821285],[28.84566752,47.0214333,69.73089773],[28.84598104,47.02165422,68.74675384],[28.8462027,47.02180885,68.1562675],[28.84628886,47.0218704,67.74775515]]]},"geometry_name":"geom","properties":{"gid":null,"shape_leng":null,"layer":7001,"medium":"T","z":70.31,"layer_name":"road_centre_line"}},{"type":"Feature","id":"lm17_line_road_centre_line.160859","geometry":{"type":"MultiLineString","coordinates":[[[28.84628886,47.0218704,67.74775515],[28.84632098,47.02189334,67.73507233]]]},"geometry_name":"geom","properties":{"gid":null,"shape_leng":null,"layer":7001,"medium":"T","z":67.74,"layer_name":"road_centre_line"}},{"type":"Feature","id":"lm17_line_road_centre_line.160860","geometry":{"type":"MultiLineString","coordinates":[[[28.84632098,47.02189334,67.73507233],[28.84635447,47.02191577,67.73507233]]]},"geometry_name":"geom","properties":{"gid":null,"shape_leng":null,"layer":7001,"medium":"T","z":67.74,"layer_name":"road_centre_line"}},{"type":"Feature","id":"lm17_line_road_centre_line.160861","geometry":{"type":"MultiLineString","coordinates":[[[28.84635447,47.02191577,67.73507233],[28.84641876,47.02195883,67.73507233],[28.84660244,47.02208682,67.53824355],[28.84674588,47.02218128,66.77063829]]]},"geometry_name":"geom","properties":{"gid":null,"shape_leng":null,"layer":7001,"medium":"T","z":67.25,"layer_name":"road_centre_line"}},{"type":"Feature","id":"lm17_line_road_centre_line.160862","geometry":{"type":"MultiLineString","coordinates":[[[28.84674588,47.02218128,66.77063829],[28.84677848,47.02220275,66.73969343]]]},"geometry_name":"geom","properties":{"gid":null,"shape_leng":null,"layer":7001,"medium":"T","z":66.76,"layer_name":"road_centre_line"}},{"type":"Feature","id":"lm17_line_road_centre_line.160924","geometry":{"type":"MultiLineString","coordinates":[[[28.84120481,47.02506932,70.14896311],[28.84133132,47.02502059,70.38441427],[28.84136186,47.02501225,70.46816401],[28.84139382,47.02500696,70.44279964],[28.84142656,47.02500484,70.30883752],[28.84145941,47.02500593,70.06900473],[28.84185678,47.02503622,70.18770912],[28.84243743,47.02508369,69.79429882],[28.8426368,47.0251081,69.79429881],[28.84266802,47.02511529,69.73091863],[28.84269808,47.0251245,69.68510482],[28.84272672,47.02513563,69.65727864],[28.84274162,47.0251428,69.65293141]]]},"geometry_name":"geom","properties":{"gid":null,"shape_leng":null,"layer":7001,"medium":"T","z":70.06,"layer_name":"road_centre_line"}},{"type":"Feature","id":"lm17_line_road_centre_line.198569","geometry":{"type":"MultiLineString","coordinates":[[[28.83884696,47.02316383,78.27485832],[28.83919772,47.0229239,78.85927807],[28.83946464,47.02272888,78.7399371],[28.83977331,47.02251463,78.62550055],[28.84008155,47.02231658,77.66423359],[28.8401489,47.0222732,77.61443412]]]},"geometry_name":"geom","properties":{"gid":null,"shape_leng":null,"layer":7001,"medium":"T","z":78.24,"layer_name":"road_centre_line"}}],"totalFeatures":134,"numberMatched":134,"numberReturned":134,"timeStamp":"2026-09-23T22:09:16.984Z","crs":{"type":"name","properties":{"name":"urn:ogc:def:crs:EPSG::4326"}}}