{"type":"FeatureCollection","features":[{"type":"Feature","id":"lm17_line_curb.1995","geometry":{"type":"MultiLineString","coordinates":[[[28.82501469,47.01851467,103.31786233],[28.82500228,47.01852783,103.31230406]]]},"geometry_name":"geom","properties":{"gid":null,"shape_leng":null,"layer":7003,"medium":"T","z":103.32,"layer_name":"curb"}},{"type":"Feature","id":"lm17_line_curb.11005","geometry":{"type":"MultiLineString","coordinates":[[[28.8233852,47.01853822,107.63579409],[28.82340025,47.0185446,107.63579409]]]},"geometry_name":"geom","properties":{"gid":null,"shape_leng":null,"layer":7003,"medium":"T","z":107.64,"layer_name":"curb"}},{"type":"Feature","id":"lm17_line_curb.11009","geometry":{"type":"MultiLineString","coordinates":[[[28.82715578,47.01988003,96.01543548],[28.82735914,47.01975055,96.04173035]]]},"geometry_name":"geom","properties":{"gid":null,"shape_leng":null,"layer":7003,"medium":"T","z":96.03,"layer_name":"curb"}}],"totalFeatures":1483,"numberMatched":1483,"numberReturned":3,"timeStamp":"2026-09-13T17:58:15.216Z","crs":{"type":"name","properties":{"name":"urn:ogc:def:crs:EPSG::4326"}}}