{"type":"FeatureCollection","features":[{"type":"Feature","id":"lm17_point_spot_height_peak.381631","geometry":{"type":"MultiPoint","coordinates":[[28.82092177,47.01826226,90.80494817]]},"geometry_name":"geom","properties":{"gid":null,"layer":2102,"z":90.8,"medium":"T","layer_name":"spot_height_peak"}},{"type":"Feature","id":"lm17_point_spot_height_peak.381624","geometry":{"type":"MultiPoint","coordinates":[[28.82228913,47.01737524,102.56143223]]},"geometry_name":"geom","properties":{"gid":null,"layer":2102,"z":102.56,"medium":"T","layer_name":"spot_height_peak"}},{"type":"Feature","id":"lm17_point_spot_height_peak.381625","geometry":{"type":"MultiPoint","coordinates":[[28.82570973,47.01730339,104.61285675]]},"geometry_name":"geom","properties":{"gid":null,"layer":2102,"z":104.61,"medium":"T","layer_name":"spot_height_peak"}}],"totalFeatures":286,"numberMatched":286,"numberReturned":3,"timeStamp":"2026-09-13T17:58:15.529Z","crs":{"type":"name","properties":{"name":"urn:ogc:def:crs:EPSG::4326"}}}