{"type":"FeatureCollection","features":[{"type":"Feature","id":"lm17_point_lamp_post.15314","geometry":{"type":"MultiPoint","coordinates":[[28.85396538,47.03931385,61.12650833]]},"geometry_name":"geom","properties":{"gid":null,"layer":8102,"z":61.13,"medium":"T","layer_name":"lamp_post"}},{"type":"Feature","id":"lm17_point_lamp_post.15315","geometry":{"type":"MultiPoint","coordinates":[[28.85430603,47.03898417,61.30590424]]},"geometry_name":"geom","properties":{"gid":null,"layer":8102,"z":61.31,"medium":"T","layer_name":"lamp_post"}},{"type":"Feature","id":"lm17_point_lamp_post.15316","geometry":{"type":"MultiPoint","coordinates":[[28.85472143,47.03907349,62.69252426]]},"geometry_name":"geom","properties":{"gid":null,"layer":8102,"z":62.69,"medium":"T","layer_name":"lamp_post"}}],"totalFeatures":2983,"numberMatched":2983,"numberReturned":3,"timeStamp":"2026-09-13T17:58:15.420Z","crs":{"type":"name","properties":{"name":"urn:ogc:def:crs:EPSG::4326"}}}