{"type":"FeatureCollection","features":[{"type":"Feature","id":"lm17_area_bridge_area.2469","geometry":{"type":"MultiPolygon","coordinates":[[[[28.85914222,47.03029146,39.51920386],[28.85917653,47.03024539,39.00445956],[28.85915114,47.03023655,39.01110142],[28.85911683,47.03028262,39.51920386],[28.85914222,47.03029146,39.51920386]]]]},"geometry_name":"geom","properties":{"gid":null,"layer":6500,"z":39.26,"medium":"T","layer_name":"bridge_area"}},{"type":"Feature","id":"lm17_area_bridge_area.2020","geometry":{"type":"MultiPolygon","coordinates":[[[[28.85583999,47.02334822,39.36728963],[28.85590437,47.02336106,39.60970829],[28.85597068,47.02337426,39.22652511],[28.85599893,47.02337989,39.19331323],[28.85601959,47.02333139,39.29306732],[28.85599637,47.02332692,39.27951847],[28.85593068,47.02331367,39.38902259],[28.85586168,47.02329992,39.4634843],[28.85583472,47.02329455,39.49257551],[28.85581406,47.02334305,39.19331323],[28.85583999,47.02334822,39.36728963]]]]},"geometry_name":"geom","properties":{"gid":null,"layer":6500,"z":39.4,"medium":"T","layer_name":"bridge_area"}},{"type":"Feature","id":"lm17_area_bridge_area.2019","geometry":{"type":"MultiPolygon","coordinates":[[[[28.85906619,47.02255552,41.79741014],[28.85908137,47.02248812,41.75950655],[28.85909704,47.02242176,41.81415269],[28.85910115,47.02240435,41.82848425],[28.85865694,47.02233679,43.81475479],[28.85768966,47.02218194,46.59553355],[28.85652855,47.02199433,48.18454998],[28.85529695,47.02180131,47.39004176],[28.85493088,47.02174025,46.19827944],[28.85443143,47.02160606,45.40377122],[28.85442551,47.02162045,45.38436896],[28.8543921,47.0217017,45.27479172],[28.85437656,47.02173971,45.18322921],[28.85435369,47.02179563,45.04853756],[28.85435165,47.0218006,45.03656036],[28.85434655,47.02181307,45.00651711],[28.85596104,47.02207652,47.78729587],[28.85620536,47.02211532,47.3161242],[28.85906313,47.02256913,41.80506483],[28.85906619,47.02255552,41.79741014]]]]},"geometry_name":"geom","properties":{"gid":null,"layer":6500,"z":44.97,"medium":"T","layer_name":"bridge_area"}}],"totalFeatures":12,"numberMatched":12,"numberReturned":3,"timeStamp":"2026-09-13T17:58:15.373Z","crs":{"type":"name","properties":{"name":"urn:ogc:def:crs:EPSG::4326"}}}