{"type":"FeatureCollection","features":[{"type":"Feature","id":"lm17_point_traffic_signal_light.154","geometry":{"type":"MultiPoint","coordinates":[[28.85233222,47.0230772,54.46673261]]},"geometry_name":"geom","properties":{"gid":null,"layer":7603,"z":0,"medium":"T","layer_name":"traffic_signal_light"}},{"type":"Feature","id":"lm17_point_traffic_signal_light.159","geometry":{"type":"MultiPoint","coordinates":[[28.8512273,47.01981543,57.47965973]]},"geometry_name":"geom","properties":{"gid":null,"layer":7603,"z":0,"medium":"T","layer_name":"traffic_signal_light"}},{"type":"Feature","id":"lm17_point_traffic_signal_light.146","geometry":{"type":"MultiPoint","coordinates":[[28.85072496,47.01947278,59.17584125]]},"geometry_name":"geom","properties":{"gid":null,"layer":7603,"z":0,"medium":"T","layer_name":"traffic_signal_light"}}],"totalFeatures":108,"numberMatched":108,"numberReturned":3,"timeStamp":"2026-09-13T17:58:15.498Z","crs":{"type":"name","properties":{"name":"urn:ogc:def:crs:EPSG::4326"}}}