{"type":"FeatureCollection","features":[{"type":"Feature","id":"lm17_line_sidewalk_outer_edge.5934","geometry":{"type":"MultiLineString","coordinates":[[[28.85961312,47.02665326,39.48452957],[28.85973413,47.02651927,39.08569303]]]},"geometry_name":"geom","properties":{"gid":null,"shape_leng":null,"layer":7004,"medium":"T","z":0,"layer_name":"sidewalk_outer_edge"}},{"type":"Feature","id":"lm17_line_sidewalk_outer_edge.5935","geometry":{"type":"MultiLineString","coordinates":[[[28.84923589,47.0176999,64.93456432],[28.84902881,47.01757611,64.93456432],[28.84857537,47.01723875,66.12460172],[28.84835226,47.01707792,66.52128085]]]},"geometry_name":"geom","properties":{"gid":null,"shape_leng":null,"layer":7004,"medium":"T","z":0,"layer_name":"sidewalk_outer_edge"}},{"type":"Feature","id":"lm17_line_sidewalk_outer_edge.5936","geometry":{"type":"MultiLineString","coordinates":[[[28.85156417,47.02311294,55.27854633],[28.85165647,47.02320905,55.09160583]]]},"geometry_name":"geom","properties":{"gid":null,"shape_leng":null,"layer":7004,"medium":"T","z":0,"layer_name":"sidewalk_outer_edge"}}],"totalFeatures":1119,"numberMatched":1119,"numberReturned":3,"timeStamp":"2026-09-13T17:58:15.263Z","crs":{"type":"name","properties":{"name":"urn:ogc:def:crs:EPSG::4326"}}}