{"type":"FeatureCollection","features":[{"type":"Feature","id":"lm17_area_roof_area.1374217","geometry":{"type":"MultiPolygon","coordinates":[[[[28.84634204,47.02138142,72.24098488],[28.84636529,47.02141077,72.24098488],[28.84640898,47.02139053,72.63440077],[28.84640648,47.0213878,72.63440077],[28.84644984,47.02136919,73.12617064],[28.84642744,47.02134477,73.02781667],[28.84634204,47.02138142,72.24098488]]]]},"geometry_name":"geom","properties":{"gid":null,"layer":5000,"z":72.68,"medium":"T","layer_name":"roof_area"}},{"type":"Feature","id":"lm17_area_roof_area.1374218","geometry":{"type":"MultiPolygon","coordinates":[[[[28.84635277,47.02127045,72.83111015],[28.84628914,47.02128426,72.04426693],[28.84633743,47.0213368,71.94591153],[28.84631583,47.02134573,71.84755613],[28.84634274,47.02137617,71.74920073],[28.84641852,47.02134485,72.63439934],[28.84635277,47.02127045,72.83111015]]]]},"geometry_name":"geom","properties":{"gid":null,"layer":5000,"z":72.29,"medium":"T","layer_name":"roof_area"}},{"type":"Feature","id":"lm17_area_roof_area.1373573","geometry":{"type":"MultiPolygon","coordinates":[[[[28.84677124,47.02133518,71.93993564],[28.84692984,47.02111575,72.52912413],[28.84664168,47.02103042,72.3676637],[28.84663436,47.02105697,71.95217876],[28.84656067,47.02110636,71.74353948],[28.8464605,47.02103648,72.17589269],[28.84653419,47.02098709,72.2501506],[28.84637374,47.02087801,73.31470878],[28.84637259,47.02087877,73.31770352],[28.84607622,47.02107671,74.39558487],[28.84607794,47.02107785,74.39558487],[28.84607512,47.02107983,74.39558487],[28.84614426,47.0211236,73.62347725],[28.84615055,47.02113286,73.62347725],[28.84616642,47.02111733,73.62347725],[28.84625113,47.02127419,73.03392415],[28.84624693,47.0212749,73.03392415],[28.84625193,47.02128226,73.02122775],[28.84636766,47.02126341,72.92287064],[28.84665342,47.02158136,71.93929952],[28.84680689,47.02151581,71.74353948],[28.84689195,47.02146659,71.54714331],[28.84678977,47.02139158,72.1363318],[28.84681239,47.02136353,72.1363318],[28.84677124,47.02133518,71.93993564]]]]},"geometry_name":"geom","properties":{"gid":null,"layer":5000,"z":72.97,"medium":"T","layer_name":"roof_area"}}],"totalFeatures":11956,"numberMatched":11956,"numberReturned":3,"timeStamp":"2026-09-13T17:58:15.326Z","crs":{"type":"name","properties":{"name":"urn:ogc:def:crs:EPSG::4326"}}}