{"type":"FeatureCollection","features":[{"type":"Feature","id":"lm17_line_road_edge.209882","geometry":{"type":"MultiLineString","coordinates":[[[28.84701502,47.02170298,67.0565644],[28.8470776,47.02171471,66.66206727],[28.84714919,47.02173534,66.66206727],[28.84783726,47.02192401,64.09783587],[28.84823613,47.02203864,62.71709589],[28.84909727,47.02226576,58.96937308],[28.84948469,47.02237758,58.20708452],[28.84949826,47.0223815,58.1803788],[28.84998286,47.02250256,57.08347148],[28.85039143,47.02261976,56.21538345]]]},"geometry_name":"geom","properties":{"gid":null,"shape_leng":null,"layer":7002,"medium":"T","z":61.64,"layer_name":"road_edge"}},{"type":"Feature","id":"lm17_line_road_edge.209880","geometry":{"type":"MultiLineString","coordinates":[[[28.84774539,47.02183635,64.69679674],[28.84777828,47.02183819,64.54817327],[28.84781125,47.02183727,64.41394805],[28.84784381,47.02183361,64.29611653],[28.84787549,47.02182728,64.19643046],[28.84790579,47.02181835,64.1163718],[28.84791429,47.02181529,64.09695215]]]},"geometry_name":"geom","properties":{"gid":null,"shape_leng":null,"layer":7002,"medium":"T","z":64.4,"layer_name":"road_edge"}},{"type":"Feature","id":"lm17_line_road_edge.209743","geometry":{"type":"MultiLineString","coordinates":[[[28.84774539,47.02183635,64.69679674],[28.84711251,47.02167201,67.03994761],[28.84703028,47.02165339,67.10826419]]]},"geometry_name":"geom","properties":{"gid":null,"shape_leng":null,"layer":7002,"medium":"T","z":65.9,"layer_name":"road_edge"}}],"totalFeatures":3003,"numberMatched":3003,"numberReturned":3,"timeStamp":"2026-09-13T17:58:15.045Z","crs":{"type":"name","properties":{"name":"urn:ogc:def:crs:EPSG::4326"}}}